MOLNIYA 2-9             
1 07276U 74026A   20117.66333674 -.00000102  00000-0 -56803-2 0  9999
2 07276  64.0088 348.7277 6812987 288.2488  12.5805  2.45094846230197
MOLNIYA 2-10            
1 07376U 74056A   20118.34118006  .00001344  00000-0  00000+0 0  9991
2 07376  63.5303 173.6664 6742118 292.7354  11.9160  2.01125551334694
MOLNIYA 1-S             
1 07392U 74060A   20118.90294507 -.00000065  00000-0  00000-0 0  9998
2 07392   7.0002 294.1952 0008577 176.9863 144.2477  1.00198816111692
MOLNIYA 1-29            
1 07780U 75036A   20118.59618990 -.00000319  00000-0 -17932-2 0  9991
2 07780  62.9411 319.2872 7390723 287.9681   9.2270  2.00637302329952
MOLNIYA 2-14            
1 08195U 75081A   20117.80361167 -.00000177  00000-0  22043-2 0  9996
2 08195  63.0603 286.1873 7306841 292.7707   8.6826  2.02048882327153
MOLNIYA 1-32            
1 08601U 76006A   20119.11327626 -.00000088  00000-0 -10621-2 0  9995
2 08601  62.6379  57.9803 7401805 278.5164  11.4740  2.00092670323393
MOLNIYA 1-36            
1 09880U 77021A   20117.68289883 -.00001921  00000-0  19050-4 0  9998
2 09880  62.4553  29.8626 7484920 283.9361   9.7252  2.00652605213727
MOLNIYA 3-8             
1 10455U 77105A   20118.97958442 -.00000970  00000-0  73984-3 0  9996
2 10455  62.3164 118.0131 7247874 276.0723  13.1239  2.00748985311489
MOLNIYA 1-40            
1 10925U 78055A   20118.14164118  .00000152  00000-0 -20176-1 0  9996
2 10925  62.5172 153.3190 7046491 278.0282  13.9766  2.00723591307016
MOLNIYA 3-10            
1 11057U 78095A   20118.22403839  .00000992  00000-0  24640-3 0  9995
2 11057  62.7893 336.7883 5960126 297.6589  14.8383  4.09625623351726
MOLNIYA 3-13            
1 11896U 80063A   20118.86319406 -.00000035  00000-0 -15200-1 0  9990
2 11896  62.5907 235.8136 7177004 275.4303  13.8226  2.00665718291485
MOLNIYA 1-49            
1 12156U 81009A   20118.48233306 -.00001007  00000-0 -24757-2 0  9991
2 12156  62.1665 281.4622 7230781 251.9088  22.8025  2.05710965205459
MOLNIYA 1-52            
1 13012U 81123A   20118.88099570  .00001185  00000-0  00000+0 0  9994
2 13012  63.5141  34.4402 7242203 248.5310  24.5925  2.00499930280989
MOLNIYA 1-53            
1 13070U 82015A   20117.56711180 -.00001225  00000-0  69628-4 0  9993
2 13070  62.3303 329.1196 7475587 275.3983  11.5800  2.00408048279561
MOLNIYA 3-20            
1 13875U 83015A   20118.97967418  .00001401  00000-0  25879-1 0  9992
2 13875  63.5385 106.9197 7125564 255.5906 303.2132  2.00676229208098
MOLNIYA 1-56            
1 13890U 83019A   20118.32962352  .00000368  00000-0  00000-0 0  9993
2 13890  63.2344 131.9152 7102808 260.4249  39.5371  1.99954687270993
MOLNIYA 1-62            
1 15214U 84089A   20119.28818914  .00000328  00000-0 -43057-3 0  9992
2 15214  62.7254 139.8952 7261321 264.6163  16.7509  1.97958007228813
MOLNIYA 1-63            
1 15429U 84124A   20118.39911976  .00000387  00000-0  00000+0 0  9994
2 15429  63.6962 240.4811 6609852 266.7465  22.3031  2.00333439259135
MOLNIYA 3-24            
1 15738U 85040A   20117.57639236  .00000193  00000-0  19692-1 0  9994
2 15738  63.8571 213.6997 6465927 252.5052  42.9581  2.55629444283916
MOLNIYA 3-27            
1 16393U 85117A   20119.09452478  .00000172  00000-0  00000+0 0  9995
2 16393  64.6559 170.3732 6528001 257.5876  27.2436  2.12400083257620
MOLNIYA 1-69            
1 17078U 86089A   20116.64050838  .00000905  00000-0 -98492-1 0  9996
2 17078  64.1431 261.6989 6730708 266.5018  23.3688  2.00752760245127
MOLNIYA 3-31            
1 17328U 87008A   20119.30693975  .00000293  00000-0  00000+0 0  9992
2 17328  63.8308 210.5078 6695198 260.9952  23.6644  2.00660364240245
MOLNIYA 1-71            
1 18946U 88017A   20119.29531756 -.00000035  00000-0 -43505-1 0  9991
2 18946  63.5171 211.4339 6823152 261.5833  28.3666  2.00587813235444
MOLNIYA 1-75            
1 19807U 89014A   20118.90505792  .00001184  00000-0 -29842-1 0  9997
2 19807  64.3163  17.6641 7052096 271.6282  15.9434  2.00364830228422
MOLNIYA 1-80            
1 21118U 91012A   20118.10679574  .00000972  00000-0  00000-0 0  9995
2 21118  64.2973  62.3533 6860451 286.4541  12.8544  2.05235748214960
MOLNIYA 3-40            
1 21196U 91022A   20119.07049945  .00001087  00000-0  00000+0 0  9999
2 21196  64.4732  55.2065 6897486 283.4196  13.4582  2.02996071213815
MOLNIYA 1-81            
1 21426U 91043A   20118.94070775  .00000056  00000-0  00000+0 0  9993
2 21426  63.9981  81.8916 6982564 272.2304  16.3339  2.00628486211494
MOLNIYA 3-41            
1 21706U 91065A   20118.01437469 -.00000551  00000-0 -45675-1 0  9994
2 21706  64.1934 247.4874 6776023 265.0901  90.3205  2.04362715210962
MOLNIYA 3-42            
1 22178U 92067A   20115.88837902 -.00000059  00000-0  00000-0 0  9993
2 22178  64.7286 306.1918 6762822 278.1912  15.8023  2.20432572 62909
MOLNIYA 1-86            
1 22671U 93035A   20119.07566838 -.00000032  00000-0 -94763-6 0  9996
2 22671  63.1726 327.9878 4827162 355.9849   1.2745  5.62602209308396
MOLNIYA 1-87            
1 22949U 93079A   20118.26143388  .00000308  00000-0  00000+0 0  9991
2 22949  63.3881 178.0497 6841232 289.2655  12.2372  2.02881193193437
MOLNIYA 1-88            
1 23420U 94081A   20118.61462167 -.00000071  00000-0 -38939-2 0  9992
2 23420  64.0949  17.3427 6028409 294.6089  15.4796  3.34493845220825
MOLNIYA 3-47            
1 23642U 95042A   20119.39946985  .00000790  00000-0 -29022-1 0  9996
2 23642  63.2273 161.4143 6829629 288.5210  12.4725  2.01927142181357
MOLNIYA 1-90            
1 24960U 97054A   20119.01676050 -.00000070  00000-0 -60452-3 0  9993
2 24960  63.4363 351.0402 6382414 300.6401  11.7391  3.18684683183219
MOLNIYA 1-91            
1 25485U 98054A   20119.52730915 -.00000021  00000-0  10000-3 0  9993
2 25485  62.8063 281.8282 7125817 288.6643  10.5745  2.36440536159943
MOLNIYA 3-50            
1 25847U 99036A   20118.00507319  .00000405  00000-0 -39608-3 0  9999
2 25847  62.2753  99.7061 7337437 275.0428  12.7992  2.00658079152439
